NORAD_CAT_ID,OBJECT_NAME,OBJECT_TYPE,EPOCH,MEAN_MOTION,ECCENTRICITY,INCLINATION,RA_OF_ASC_NODE,ARG_OF_PERICENTER,MEAN_ANOMALY,BSTAR,MEAN_MOTION_DOT,MEAN_MOTION_DDOT,TLE_LINE0,TLE_LINE1,TLE_LINE2,SEMIMAJOR_AXIS,PERIOD,APOGEE,PERIGEE,DECAYED
53548.0,STARLINK-4513,PAYLOAD,2023-09-05 04:18:54,15.08840621,0.000137,53.2165,218.4962,87.7032,272.4117,7.3989e-05,8.9e-06,0.0,0 STARLINK-4513,1 53548U 22101X   23248.17979716  .00000890  00000-0  73989-4 0  9994,2 53548  53.2165 218.4962 0001370  87.7032 272.4117 15.08840621 57943,6917.878,95.438,540.691,538.796,0.0
53548.0,STARLINK-4513,PAYLOAD,2023-09-05 07:29:40,15.08843784,0.0001385,53.2167,217.9014,87.9176,272.1975,6.6718e-05,7.74e-06,0.0,0 STARLINK-4513,1 53548U 22101X   23248.31227566  .00000774  00000-0  66718-4 0  9992,2 53548  53.2167 217.9014 0001385  87.9176 272.1975 15.08843784 57968,6917.869,95.437,540.692,538.776,0.0
53548.0,STARLINK-4513,PAYLOAD,2023-09-06 04:09:41,15.08840173,0.0001354,53.2165,214.0354,86.037,274.0777,0.00018239,2.616e-05,0.0,0 STARLINK-4513,1 53548U 22101X   23249.17339674  .00002616  00000-0  18239-3 0  9992,2 53548  53.2165 214.0354 0001354  86.0370 274.0777 15.08840173 58098,6917.88,95.438,540.682,538.808,0.0
53548.0,STARLINK-4513,PAYLOAD,2023-09-06 15:17:23,15.08841114,0.0001313,53.2166,211.9533,86.7799,273.3344,0.00011953,1.615e-05,0.0,0 STARLINK-4513,1 53548U 22101X   23249.63707775  .00001615  00000-0  11953-3 0  9998,2 53548  53.2166 211.9533 0001313  86.7799 273.3344 15.08841114 58167,6917.877,95.437,540.65,538.834,0.0
53548.0,STARLINK-4513,PAYLOAD,2023-09-08 03:51:15,15.0886124,0.0001234,53.2165,205.1143,96.5771,263.5362,-0.00015173,-2.703e-05,0.0,0 STARLINK-4513,1 53548U 22101X   23251.16059244 -.00002703  00000-0 -15173-3 0  9999,2 53548  53.2165 205.1143 0001234  96.5771 263.5362 15.08861240 58397,6917.815,95.436,540.534,538.827,0.0
53548.0,STARLINK-4513,PAYLOAD,2023-09-09 02:06:39,15.08839494,0.0001262,53.2177,200.9535,85.4968,274.6168,0.00010395,1.367e-05,0.0,0 STARLINK-4513,1 53548U 22101X   23252.08796070  .00001367  00000-0  10395-3 0  9990,2 53548  53.2177 200.9535 0001262  85.4968 274.6168 15.08839494 58533,6917.882,95.438,540.62,538.874,0.0
53548.0,STARLINK-4513,PAYLOAD,2023-09-09 13:14:21,15.08844521,0.0001313,53.2166,198.8701,97.8199,262.2942,2.5385e-05,1.16e-06,0.0,0 STARLINK-4513,1 53548U 22101X   23252.55164161  .00000116  00000-0  25385-4 0  9999,2 53548  53.2166 198.8701 0001313  97.8199 262.2942 15.08844521 58609,6917.867,95.437,540.64,538.823,0.0
53548.0,STARLINK-4513,PAYLOAD,2023-09-10 03:32:50,15.08840866,0.0001332,53.2174,196.1952,95.1292,264.9852,4.6028e-05,4.45e-06,0.0,0 STARLINK-4513,1 53548U 22101X   23253.14780156  .00000445  00000-0  46028-4 0  9995,2 53548  53.2174 196.1952 0001332  95.1292 264.9852 15.08840866 58699,6917.878,95.437,540.664,538.821,0.0
53548.0,STARLINK-4513,PAYLOAD,2023-09-10 06:43:35,15.08848731,0.0001476,53.2176,195.5993,100.4649,259.651,2.4289e-05,9.9e-07,0.0,0 STARLINK-4513,1 53548U 22101X   23253.28027666  .00000099  00000-0  24289-4 0  9990,2 53548  53.2176 195.5993 0001476 100.4649 259.6510 15.08848731 58718,6917.854,95.437,540.74,538.698,0.0
53548.0,STARLINK-4513,PAYLOAD,2023-09-10 19:26:41,15.08835581,0.0001453,53.2168,193.2185,84.409,275.7068,2.1908e-05,6.1e-07,0.0,0 STARLINK-4513,1 53548U 22101X   23253.81020823  .00000061  00000-0  21908-4 0  9991,2 53548  53.2168 193.2185 0001453  84.4090 275.7068 15.08835581 58797,6917.894,95.438,540.764,538.754,0.0
53548.0,STARLINK-4513,PAYLOAD,2023-09-11 04:59:00,15.08843562,0.0001278,53.2172,191.4363,91.7853,268.3285,8.8233e-05,1.117e-05,0.0,0 STARLINK-4513,1 53548U 22101X   23254.20764111  .00001117  00000-0  88233-4 0  9997,2 53548  53.2172 191.4363 0001278  91.7853 268.3285 15.08843562 58857,6917.87,95.437,540.619,538.85,0.0
53548.0,STARLINK-4513,PAYLOAD,2023-09-11 12:55:56,15.08839584,0.0001343,53.2177,189.9499,91.1967,268.9179,4.0376e-05,3.55e-06,0.0,0 STARLINK-4513,1 53548U 22101X   23254.53884534  .00000355  00000-0  40376-4 0  9994,2 53548  53.2177 189.9499 0001343  91.1967 268.9179 15.08839584 58900,6917.882,95.438,540.676,538.818,0.0
53548.0,STARLINK-4513,PAYLOAD,2023-09-12 03:14:23,15.0885277,0.0001188,53.2172,187.272,92.8126,267.3002,0.00013729,1.899e-05,0.0,0 STARLINK-4513,1 53548U 22101X   23255.13499483  .00001899  00000-0  13729-3 0  9991,2 53548  53.2172 187.2720 0001188  92.8126 267.3002 15.08852770 58994,6917.841,95.437,540.528,538.885,0.0
53548.0,STARLINK-4513,PAYLOAD,2023-09-13 01:29:48,15.08846907,0.0001309,53.2179,183.1097,96.9131,263.2011,0.00010015,1.307e-05,0.0,0 STARLINK-4513,1 53548U 22101X   23256.06236190  .00001307  00000-0  10015-3 0  9997,2 53548  53.2179 183.1097 0001309  96.9131 263.2011 15.08846907 59136,6917.859,95.437,540.63,538.819,0.0
53548.0,STARLINK-4513,PAYLOAD,2023-09-13 04:40:33,15.08855821,0.0001294,53.2171,182.5134,98.0414,262.0725,0.00017171,2.447e-05,0.0,0 STARLINK-4513,1 53548U 22101X   23256.19483482  .00002447  00000-0  17171-3 0  9995,2 53548  53.2171 182.5134 0001294  98.0414 262.0725 15.08855821 59159,6917.832,95.437,540.592,538.802,0.0
53548.0,STARLINK-4513,PAYLOAD,2023-09-13 18:59:03,15.08840067,0.0001311,53.2168,179.8409,79.7787,280.3353,7.262e-05,8.68e-06,0.0,0 STARLINK-4513,1 53548U 22101X   23256.79100766  .00000868  00000-0  72620-4 0  9998,2 53548  53.2168 179.8409 0001311  79.7787 280.3353 15.08840067 59244,6917.88,95.438,540.652,538.838,0.0
53548.0,STARLINK-4513,PAYLOAD,2023-09-14 01:20:34,15.08847141,0.0001449,53.2167,178.6489,102.651,257.4644,6.0041e-05,6.68e-06,0.0,0 STARLINK-4513,1 53548U 22101X   23257.05596033  .00000668  00000-0  60041-4 0  9996,2 53548  53.2167 178.6489 0001449 102.6510 257.4644 15.08847141 59282,6917.859,95.437,540.726,538.721,0.0
53548.0,STARLINK-4513,PAYLOAD,2023-09-14 04:31:21,15.0885206,0.0001394,53.2168,178.0544,100.0058,260.1092,0.00014805,2.07e-05,0.0,0 STARLINK-4513,1 53548U 22101X   23257.18843770  .00002070  00000-0  14805-3 0  9998,2 53548  53.2168 178.0544 0001394 100.0058 260.1092 15.08852060 59304,6917.844,95.437,540.673,538.744,0.0
53548.0,STARLINK-4513,PAYLOAD,2023-09-14 18:49:50,15.08839607,0.000134,53.2158,175.377,82.2524,277.8621,-4.4621e-05,-9.98e-06,0.0,0 STARLINK-4513,1 53548U 22101X   23257.78460687 -.00000998  00000-0 -44621-4 0  9995,2 53548  53.2158 175.3770 0001340  82.2524 277.8621 15.08839607 59398,6917.882,95.438,540.674,538.82,0.0
53548.0,STARLINK-4513,PAYLOAD,2023-09-15 05:57:31,15.08847717,0.0001421,53.2164,173.2956,90.4027,269.7128,0.0002155,3.144e-05,0.0,0 STARLINK-4513,1 53548U 22101X   23258.24828335  .00003144  00000-0  21550-3 0  9994,2 53548  53.2164 173.2956 0001421  90.4027 269.7128 15.08847717 59468,6917.857,95.437,540.705,538.739,0.0
53548.0,STARLINK-4513,PAYLOAD,2023-09-15 18:40:37,15.0884181,0.0001671,53.2167,170.9156,99.5081,260.61,0.00011045,1.47e-05,0.0,0 STARLINK-4513,1 53548U 22101X   23258.77820674  .00001470  00000-0  11045-3 0  9998,2 53548  53.2167 170.9156 0001671  99.5081 260.6100 15.08841810 59541,6917.875,95.437,540.896,538.584,0.0
53548.0,STARLINK-4513,PAYLOAD,2023-09-16 04:12:55,15.08853081,0.0001338,53.2168,169.1332,95.5455,264.569,0.00033338,5.024e-05,0.0,0 STARLINK-4513,1 53548U 22101X   23259.17564088  .00005024  00000-0  33338-3 0  9995,2 53548  53.2168 169.1332 0001338  95.5455 264.5690 15.08853081 59606,6917.84,95.437,540.631,538.78,0.0
53548.0,STARLINK-4513,PAYLOAD,2023-09-17 00:52:56,15.08837812,0.0001253,53.2164,165.2693,87.3607,272.7529,6.3137e-05,7.17e-06,0.0,0 STARLINK-4513,1 53548U 22101X   23260.03677004  .00000717  00000-0  63137-4 0  9990,2 53548  53.2164 165.2693 0001253  87.3607 272.7529 15.08837812 59733,6917.887,95.438,540.619,538.885,0.0
53548.0,STARLINK-4513,PAYLOAD,2023-09-17 04:03:43,15.08844316,0.0001247,53.2161,164.6725,82.0271,278.0862,0.00020422,2.964e-05,0.0,0 STARLINK-4513,1 53548U 22101X   23260.16924845  .00002964  00000-0  20422-3 0  9997,2 53548  53.2161 164.6725 0001247  82.0271 278.0862 15.08844316 59759,6917.867,95.437,540.595,538.87,0.0
53548.0,STARLINK-4513,PAYLOAD,2023-09-18 03:54:29,15.08856856,0.0001408,53.2165,160.2134,92.2385,267.8768,0.0006092,9.425e-05,0.0,0 STARLINK-4513,1 53548U 22101X   23261.16284609  .00009425  00000-0  60920-3 0  9991,2 53548  53.2165 160.2134 0001408  92.2385 267.8768 15.08856856 59907,6917.829,95.436,540.668,538.72,0.0
53548.0,STARLINK-4513,PAYLOAD,2023-09-18 21:23:44,15.08849397,0.0001523,53.2157,156.9437,100.9505,259.1659,0.00034621,5.228e-05,0.0,0 STARLINK-4513,1 53548U 22101X   23261.89148860  .00005228  00000-0  34621-3 0  9995,2 53548  53.2157 156.9437 0001523 100.9505 259.1659 15.08849397 60014,6917.852,95.437,540.77,538.663,0.0
53548.0,STARLINK-4513,PAYLOAD,2023-09-19 02:09:53,15.08860974,0.0001437,53.2153,156.0494,85.5398,274.5758,0.0010635,0.00016688,0.0,0 STARLINK-4513,1 53548U 22101X   23262.09020670  .00016688  00000-0  10635-2 0  9996,2 53548  53.2153 156.0494 0001437  85.5398 274.5758 15.08860974 60044,6917.816,95.436,540.675,538.687,0.0
53548.0,STARLINK-4513,PAYLOAD,2023-09-20 02:00:40,15.08863838,0.000158,53.2155,151.5899,84.0701,276.0472,0.00076711,0.0001195,0.0,0 STARLINK-4513,1 53548U 22101X   23263.08379872  .00011950  00000-0  76711-3 0  9992,2 53548  53.2155 151.5899 0001580  84.0701 276.0472 15.08863838 60194,6917.808,95.436,540.766,538.58,0.0
53548.0,STARLINK-4513,PAYLOAD,2023-09-20 09:57:36,15.08837362,0.0001579,53.2155,150.1032,89.3474,270.7699,-0.00019064,-3.321e-05,0.0,0 STARLINK-4513,1 53548U 22101X   23263.41500577 -.00003321  00000-0 -19064-3 0  9990,2 53548  53.2155 150.1032 0001579  89.3474 270.7699 15.08837362 60242,6917.888,95.438,540.846,538.661,0.0
53548.0,STARLINK-4513,PAYLOAD,2023-09-20 21:05:19,15.08814066,0.0001706,53.2161,148.0206,79.4954,280.623,-0.00052955,-8.7e-05,0.0,0 STARLINK-4513,1 53548U 22101X   23263.87869601 -.00008700  00000-0 -52955-3 0  9998,2 53548  53.2161 148.0206 0001706  79.4954 280.6230 15.08814066 60318,6917.96,95.439,541.005,538.644,0.0
